{"type": "FeatureCollection", "name": "Batas Desa Cibulakan", "features": [{"type": "Feature", "properties": {"name": "Desa Cibulakan"}, "geometry": {"type": "Polygon", "coordinates": [[[107.109388692, -6.822736369], [107.108920479, -6.822494109], [107.109191785, -6.822152084], [107.108734325, -6.821788131], [107.109009015, -6.821399452], [107.108529633, -6.821064031], [107.10807648, -6.820746965], [107.108318898, -6.820365601], [107.107973576, -6.820198484], [107.108216481, -6.819764259], [107.108158815, -6.819710934], [107.108114417, -6.819626935], [107.108133167, -6.81953692], [107.108198113, -6.819504106], [107.108089838, -6.819259654], [107.107874568, -6.819063506], [107.107543673, -6.818911873], [107.107403153, -6.818927436], [107.107271292, -6.818871205], [107.107244358, -6.818833393], [107.107059188, -6.818714707], [107.106954045, -6.818748652], [107.106748001, -6.818692148], [107.106465069, -6.818564223], [107.106140987, -6.818424373], [107.105972387, -6.818350196], [107.105775667, -6.818367854], [107.105743147, -6.81838785], [107.105641842, -6.818574068], [107.10549913, -6.818800797], [107.105280182, -6.819119747], [107.104677347, -6.818889786], [107.104439193, -6.819411371], [107.104185219, -6.819278847], [107.104107534, -6.819218791], [107.103936191, -6.819133807], [107.103744831, -6.819082563], [107.103405698, -6.818932205], [107.103092783, -6.818783327], [107.102938948, -6.818709594], [107.102328465, -6.818406992], [107.102253567, -6.818429049], [107.102154619, -6.818501246], [107.10153661, -6.81988739], [107.10112476, -6.819595434], [107.10084315, -6.819421314], [107.100529493, -6.819266357], [107.1002723, -6.819718789], [107.100166694, -6.819878836], [107.100203656, -6.819896424], [107.099842515, -6.820530392], [107.099599629, -6.820393206], [107.099171484, -6.820169317], [107.098935636, -6.820028615], [107.098770191, -6.819887912], [107.098567684, -6.819660682], [107.098479684, -6.819479528], [107.098421492, -6.819278641], [107.09841093, -6.819146735], [107.098144648, -6.819280924], [107.09785563, -6.819172564], [107.097655093, -6.818842597], [107.097131785, -6.818922907], [107.097077756, -6.818924908], [107.096967698, -6.818980898], [107.096846306, -6.818977048], [107.096782598, -6.81892703], [107.096646089, -6.818797439], [107.096539153, -6.818751969], [107.096284334, -6.818720137], [107.095724079, -6.818613263], [107.09455728, -6.818410309], [107.094049038, -6.818394958], [107.094001725, -6.818504863], [107.093960562, -6.818510736], [107.09396462, -6.818746078], [107.094021467, -6.818772454], [107.094017409, -6.819147787], [107.093991006, -6.819401876], [107.093913798, -6.819741255], [107.093633345, -6.820528187], [107.092683867, -6.820267403], [107.092591725, -6.820540476], [107.092522032, -6.820524779], [107.09244117, -6.820725346], [107.092871352, -6.820971202], [107.093392097, -6.821149126], [107.093759474, -6.821614251], [107.093603254, -6.821637154], [107.093831981, -6.821906107], [107.094119846, -6.822080795], [107.094288056, -6.822131016], [107.094456228, -6.822106675], [107.094346257, -6.822818368], [107.094236286, -6.822902477], [107.094073756, -6.823290416], [107.093963781, -6.823692537], [107.093791388, -6.824139027], [107.093602336, -6.824785223], [107.09326272, -6.825270469], [107.092425251, -6.825564277], [107.092319855, -6.825564277], [107.091964782, -6.825609994], [107.091449578, -6.825692693], [107.091091233, -6.825722063], [107.09088026, -6.825717402], [107.090405372, -6.825720992], [107.090168749, -6.825734969], [107.089825616, -6.82579761], [107.089643873, -6.825701803], [107.089545255, -6.825651059], [107.089476009, -6.82560469], [107.089441029, -6.825600411], [107.089378924, -6.825622525], [107.089341804, -6.825641784], [107.089328239, -6.825636792], [107.089274702, -6.825609684], [107.089183325, -6.825574731], [107.088914021, -6.825499311], [107.088575936, -6.825440873], [107.088429739, -6.825408001], [107.088309126, -6.825355045], [107.088233868, -6.825285303], [107.087968881, -6.825115474], [107.087555873, -6.824896336], [107.087246774, -6.824718768], [107.08716637, -6.82466216], [107.086974551, -6.824927173], [107.086956208, -6.824952516], [107.086802695, -6.82514974], [107.08666735, -6.825396549], [107.086713037, -6.825422115], [107.086498931, -6.825718544], [107.08642965, -6.825848405], [107.086407148, -6.825861253], [107.086204626, -6.825843585], [107.086098539, -6.825795402], [107.086040676, -6.825752034], [107.085963525, -6.825726335], [107.085897623, -6.825654059], [107.085797968, -6.825620328], [107.085704741, -6.825519141], [107.085507656, -6.825370216], [107.085230575, -6.825175395], [107.085081877, -6.82509986], [107.084995368, -6.825006897], [107.084877185, -6.824844633], [107.084815401, -6.824767058], [107.084669513, -6.824711486], [107.084577624, -6.824698819], [107.084504754, -6.824681409], [107.084417621, -6.824632333], [107.084325733, -6.824586422], [107.084235435, -6.824557926], [107.084143549, -6.824535764], [107.084008888, -6.824510436], [107.083924924, -6.824475608], [107.083728476, -6.824424949], [107.083610958, -6.824377047], [107.083338475, -6.824183914], [107.0830389, -6.823925561], [107.08285044, -6.823807339], [107.08255894, -6.823622434], [107.082206609, -6.823412204], [107.081798507, -6.823280492], [107.08187435, -6.822788543], [107.081713761, -6.82266321], [107.081548388, -6.822550141], [107.081517303, -6.822500443], [107.081542172, -6.822424651], [107.081595637, -6.822327734], [107.081600598, -6.822303859], [107.081418321, -6.82223129], [107.081197409, -6.822124194], [107.081039926, -6.822041139], [107.080744735, -6.821932924], [107.080530006, -6.822253566], [107.080386843, -6.822448053], [107.080283113, -6.822699037], [107.080635298, -6.82277475], [107.080731731, -6.822875042], [107.080693659, -6.822950778], [107.080738344, -6.823050478], [107.080682178, -6.823099328], [107.080661136, -6.82319658], [107.080818213, -6.823292795], [107.080964521, -6.823405757], [107.081006198, -6.823420249], [107.081181782, -6.823545222], [107.081311238, -6.82368111], [107.081152094, -6.823951251], [107.081012905, -6.824040971], [107.081146449, -6.824144822], [107.081217803, -6.824187209], [107.08116623, -6.824304471], [107.081125246, -6.824348982], [107.081123132, -6.82441608], [107.081068019, -6.824614595], [107.080998782, -6.824742463], [107.080960633, -6.824971344], [107.081634179, -6.825229412], [107.08186695, -6.825199349], [107.082064425, -6.8252588], [107.082149472, -6.825440217], [107.082061457, -6.825606255], [107.081925371, -6.826017379], [107.081880753, -6.826116118], [107.081839103, -6.826432983], [107.081749828, -6.826735463], [107.081703119, -6.826799768], [107.08163191, -6.826965127], [107.081598221, -6.827114413], [107.081624397, -6.827130047], [107.081671744, -6.827158808], [107.081698581, -6.82717511], [107.081758189, -6.827242118], [107.081812833, -6.827321539], [107.081894795, -6.827400959], [107.081951921, -6.82749527], [107.082028915, -6.827527534], [107.082091006, -6.827557321], [107.082148132, -6.827619367], [107.082215193, -6.827686377], [107.082267351, -6.827673967], [107.082398985, -6.827646668], [107.082548008, -6.827629295], [107.082634939, -6.827626812], [107.082778991, -6.827686377], [107.082928015, -6.827815435], [107.083069584, -6.827924641], [107.08313459, -6.827952326], [107.083261257, -6.8279697], [107.08336806, -6.827996999], [107.083464926, -6.828054084], [107.083561785, -6.828083866], [107.083688458, -6.828140949], [107.083790289, -6.828215405], [107.083874733, -6.828247669], [107.083998921, -6.82826256], [107.084070947, -6.82826008], [107.084157876, -6.828282417], [107.08426716, -6.82829979], [107.084383895, -6.828284899], [107.084432039, -6.828320344], [107.084516479, -6.828422102], [107.084613345, -6.828523861], [107.08474498, -6.828528823], [107.084861717, -6.828518898], [107.084993351, -6.828566054], [107.085132439, -6.828603279], [107.085311267, -6.828650434], [107.085423033, -6.82868022], [107.085524862, -6.828675255], [107.085611792, -6.828620652], [107.085711138, -6.828561088], [107.085945322, -6.828434592], [107.086054606, -6.828434592], [107.086139053, -6.828476781], [107.08621108, -6.828556203], [107.08627317, -6.82864307], [107.086335267, -6.828672853], [107.086389907, -6.828643071], [107.086481802, -6.828598395], [107.086593568, -6.828576058], [107.086665597, -6.828556203], [107.086730173, -6.828504084], [107.086757962, -6.828459469], [107.086864761, -6.828397422], [107.08707091, -6.828365158], [107.08715039, -6.828404866], [107.087252217, -6.828424722], [107.087351572, -6.828370121], [107.087423598, -6.828283255], [107.087470787, -6.8282361], [107.087560196, -6.828198869], [107.087632226, -6.828156679], [107.087684381, -6.828121931], [107.087753927, -6.828124414], [107.087808567, -6.828151713], [107.087909712, -6.828224889], [107.087947229, -6.828251484], [107.087983542, -6.828475343], [107.087996361, -6.828539408], [107.088018507, -6.828566197], [107.088101342, -6.82861072], [107.08819343, -6.828654981], [107.088223734, -6.828689924], [107.088240052, -6.828755151], [107.088263438, -6.828849961], [107.088276263, -6.828967604], [107.088317058, -6.829038655], [107.088363686, -6.829081754], [107.088454764, -6.829149589], [107.088538689, -6.829174054], [107.08869721, -6.829217148], [107.088795234, -6.829261634], [107.088848856, -6.829304732], [107.088915297, -6.82941888], [107.088944434, -6.829478282], [107.088963086, -6.829487601], [107.089013206, -6.829488764], [107.089091306, -6.829487601], [107.089200874, -6.829488764], [107.089281299, -6.829507403], [107.089365226, -6.829549335], [107.089538903, -6.829659989], [107.089574263, -6.829670317], [107.089663425, -6.829678936], [107.089886072, -6.829659866], [107.090055705, -6.829659866], [107.090197931, -6.829693879], [107.090314556, -6.829761682], [107.090359084, -6.829808298], [107.090435421, -6.829882458], [107.09062883, -6.829965427], [107.09093024, -6.830065439], [107.091184688, -6.830126886], [107.091328878, -6.830198928], [107.091407429, -6.830269119], [107.091507083, -6.830434392], [107.091755329, -6.830699701], [107.092742902, -6.831709065], [107.092860898, -6.831725054], [107.092988893, -6.83178101], [107.093188886, -6.831866945], [107.093364874, -6.831872941], [107.093506872, -6.831858952], [107.093632867, -6.831791003], [107.093765171, -6.831752978], [107.093919164, -6.831726997], [107.09397116, -6.831703015], [107.094001309, -6.831660701], [107.094175299, -6.831464853], [107.094267295, -6.831498825], [107.094531976, -6.831240527], [107.094645969, -6.831302478], [107.094777965, -6.831396406], [107.094845963, -6.831376421], [107.094917963, -6.831370426], [107.095005956, -6.831274501], [107.095055952, -6.831296483], [107.095157949, -6.831316467], [107.095293945, -6.831310472], [107.095487932, -6.831260511], [107.095559931, -6.831214549], [107.095671926, -6.831014702], [107.095859916, -6.830812858], [107.096039912, -6.830626999], [107.096200793, -6.830481947], [107.096315676, -6.830331476], [107.096391584, -6.830184016], [107.096487569, -6.829913832], [107.096608033, -6.829640758], [107.096659344, -6.829537098], [107.096725953, -6.829494021], [107.096795585, -6.829462777], [107.0968368, -6.829418756], [107.096863803, -6.82934065], [107.096936281, -6.829185857], [107.097042866, -6.828987042], [107.097116878, -6.828817567], [107.097273251, -6.828395414], [107.097371435, -6.828200504], [107.097419748, -6.82814086], [107.097524917, -6.828098256], [107.097671295, -6.828038614], [107.097833492, -6.827940354], [107.097960079, -6.82783228], [107.098085246, -6.827721294], [107.098194674, -6.827609107], [107.098302737, -6.82751098], [107.098406481, -6.827421512], [107.098479203, -6.827379972], [107.098608529, -6.827351568], [107.098770536, -6.827291925], [107.098907398, -6.827246058], [107.099022505, -6.827217659], [107.099116302, -6.827192095], [107.099156096, -6.827159435], [107.099279738, -6.827047245], [107.099402136, -6.826941891], [107.099530041, -6.826853843], [107.099692349, -6.826754046], [107.099852938, -6.82667878], [107.099938209, -6.826619136], [107.099999317, -6.826596416], [107.100063267, -6.826600674], [107.100158483, -6.826612035], [107.100259687, -6.826610277], [107.100349215, -6.826570517], [107.100424535, -6.826525073], [107.100562388, -6.826411466], [107.100721554, -6.826297856], [107.102110811, -6.826974838], [107.102225789, -6.827000647], [107.102453614, -6.82711207], [107.102604811, -6.827211869], [107.102801747, -6.827373656], [107.102883192, -6.827392435], [107.102909526, -6.827394712], [107.102969369, -6.827398637], [107.103173335, -6.827526309], [107.103296041, -6.827540723], [107.103389451, -6.827559331], [107.103459974, -6.827488224], [107.103571979, -6.827271511], [107.103634577, -6.827139208], [107.103759857, -6.826893735], [107.103948588, -6.82671113], [107.103990487, -6.826661197], [107.103986023, -6.826515791], [107.104041189, -6.826435184], [107.104389599, -6.82643175], [107.104317429, -6.826125908], [107.104335963, -6.826032144], [107.104619105, -6.826124661], [107.104801011, -6.826155906], [107.104940535, -6.826155836], [107.105118173, -6.826137378], [107.105345555, -6.826106133], [107.105758514, -6.825964458], [107.106018257, -6.825618705], [107.106050006, -6.825562953], [107.106100187, -6.825474836], [107.106200582, -6.825449283], [107.106437896, -6.825363048], [107.106758847, -6.825209524], [107.107104206, -6.825055893], [107.107131823, -6.825034411], [107.107250098, -6.824942408], [107.10742211, -6.824877077], [107.107479294, -6.824811551], [107.107526878, -6.824757026], [107.107630766, -6.82464028], [107.10775092, -6.824536427], [107.107881924, -6.824411048], [107.108111934, -6.824144108], [107.10834713, -6.823850709], [107.108481541, -6.823670086], [107.108548122, -6.823572375], [107.108799159, -6.823336996], [107.108834518, -6.823303842], [107.109124232, -6.822985677], [107.109235671, -6.822852713], [107.109388692, -6.822736369]]]}}]}